{
  "norad_id": 62590,
  "name": "STARLINK-11397 [DTC]",
  "history": [
    {
      "epoch": "2026-03-28T18:59:46.460544Z",
      "apogee_km": 356.7393698110309,
      "perigee_km": 355.2381984912281,
      "latitude_deg": -3.24995541783453e-05,
      "longitude_deg": -100.59020395560893,
      "height_km": 356.339407993071,
      "semi_major_axis_km": 6734.125784151129,
      "eccentricity": 0.00011146,
      "inclination_deg": 43.0001,
      "raan_deg": 10.5603,
      "arg_perigee_deg": 219.536,
      "mean_anomaly_deg": 140.5426,
      "mean_motion_rev_day": 15.71017149
    }
  ]
}